BEIDOU-2 G5 (C05)       
1 38091U 12008A   25069.88393252  .00000041  00000+0  00000+0 0  9997
2 38091   2.4189  71.2439 0013303 250.9382 223.4930  1.00272129 47831
YAHSAT 1A               
1 37393U 11016B   25069.62429241  .00000084  00000+0  00000+0 0  9996
2 37393   0.0141 155.5850 0002781 194.9745  95.1835  1.00269713 37751
SBIRS GEO-1 (USA 230)   
1 37481U 11019A   25069.77791118 -.00000019  00000+0  00000+0 0  9997
2 37481   3.5343  51.6563 0002302 296.0376 166.7303  1.00272258 50759
TELSTAR 14R             
1 37602U 11021A   25069.81564453 -.00000297  00000+0  00000+0 0  9998
2 37602   0.0446 271.4453 0003070  84.8234  43.0573  1.00272284 51182
GSAT-8                  
1 37605U 11022A   25069.88393252  .00000068  00000+0  00000+0 0  9991
2 37605   0.9309  87.7739 0007235 210.3167 243.9544  1.00271349 48574
ZHONGXING-10            
1 37677U 11026A   25069.83150045 -.00000369  00000+0  00000+0 0  9995
2 37677   0.0496 270.3778 0001331 278.0251  30.1398  1.00273554 50318
SES-3                   
1 37748U 11035A   25069.94475905 -.00000119  00000+0  00000+0 0  9994
2 37748   0.1275  85.2737 0003043 264.7977  55.8683  1.00272181 49943
KAZSAT-2                
1 37749U 11035B   25069.83100271 -.00000215  00000+0  00000+0 0  9991
2 37749   0.0162 120.7371 0000772 293.5482 140.0846  1.00273856 48750
ASTRA 1N                
1 37775U 11041A   25069.83197803  .00000102  00000+0  00000+0 0  9998
2 37775   0.0898  55.2858 0005298 320.8033 111.3338  1.00273889 39888
PAKSAT-1R               
1 37779U 11042A   25069.84211256  .00000136  00000+0  00000+0 0  9990
2 37779   0.0252 104.9435 0001991 279.4092 125.5295  1.00273962 49836
SES-2                   
1 37809U 11049A   25069.59657758 -.00000213  00000+0  00000+0 0  9991
2 37809   0.0199 128.6017 0002753 229.4478 298.2305  1.00268639 49317
ARABSAT-5C              
1 37810U 11049B   25069.86989344  .00000106  00000+0  00000+0 0  9992
2 37810   0.0543   6.7304 0001528 330.7191 164.4660  1.00271383 49266
QUETZSAT 1              
1 37826U 11054A   25069.81286436 -.00000259  00000+0  00000+0 0  9992
2 37826   0.0437 301.2440 0002435  55.6348  27.4583  1.00272224 45223
INTELSAT 18 (IS-18)     
1 37834U 11056A   25069.79240595  .00000035  00000+0  00000+0 0  9997
2 37834   0.0193 144.0343 0001991 217.4499 272.4519  1.00271701 49164
EUTELSAT 16A            
1 37836U 11057A   25069.84766987  .00000086  00000+0  00000+0 0  9990
2 37836   0.0671 358.1137 0005298 353.1966 138.5724  1.00271047  2686
VIASAT-1                
1 37843U 11059A   25069.81084361 -.00000040  00000+0  00000+0 0  9997
2 37843   0.0169 165.9365 0002291 187.8122 351.7149  1.00270671 42674
ASIASAT 7               
1 37933U 11069A   25069.49489347 -.00000351  00000+0  00000+0 0  9990
2 37933   0.0210 164.3067 0001647 149.0946 138.6518  1.00270618 40201
LUCH-5A                 
1 37951U 11074B   25069.78979954 -.00000063  00000+0  00000+0 0  9996
2 37951   7.5711  80.7677 0002659 251.6613 287.4443  1.00271896 48401
NIGCOMSAT 1R            
1 38014U 11077A   25069.86433581  .00000128  00000+0  00000+0 0  9991
2 38014   0.0409  75.0576 0000220 281.6407 165.6895  1.00270497 48386
WGS F4 (USA 233)        
1 38070U 12003A   25069.69350233 -.00000232  00000+0  00000+0 0  9993
2 38070   0.0107 128.7157 0000418 201.9514 175.9649  1.00270716 39506
SES-4                   
1 38087U 12007A   25069.82381128 -.00000185  00000+0  00000+0 0  9994
2 38087   0.0312  67.6667 0002370 294.4002  81.2367  1.00270802 47575
INTELSAT 22 (IS-22)     
1 38098U 12011A   25069.85878074 -.00000076  00000+0  00000+0 0  9994
2 38098   0.0146 132.6783 0001784 236.1821 181.1613  1.00272474  2543
APSTAR-7                
1 38107U 12013A   25069.85878074 -.00000119  00000+0  00000+0 0  9995
2 38107   0.0142 136.0397 0002639 235.9337 182.4486  1.00271349 47167
YAHSAT 1B               
1 38245U 12016A   25069.62333672  .00000109  00000+0  00000+0 0  9994
2 38245   0.0902  94.0388 0003685 257.7156  88.7492  1.00269495 40943
