OBJECT_NAME,OBJECT_ID,EPOCH,MEAN_MOTION,ECCENTRICITY,INCLINATION,RA_OF_ASC_NODE,ARG_OF_PERICENTER,MEAN_ANOMALY,EPHEMERIS_TYPE,CLASSIFICATION_TYPE,NORAD_CAT_ID,ELEMENT_SET_NO,REV_AT_EPOCH,BSTAR,MEAN_MOTION_DOT,MEAN_MOTION_DDOT
YAHSAT 1A,2011-016B,2025-03-10T14:58:58.864224,1.00269713,.0002781,0.0141,155.5850,194.9745,95.1835,0,U,37393,999,3775,0,.84E-6,0
SBIRS GEO-1 (USA 230),2011-019A,2025-03-10T18:40:11.525952,1.00272258,.0002302,3.5343,51.6563,296.0376,166.7303,0,U,37481,999,5075,0,-.19E-6,0
TELSTAR 14R,2011-021A,2025-03-10T19:34:31.687392,1.00272284,.000307,0.0446,271.4453,84.8234,43.0573,0,U,37602,999,5118,0,-.297E-5,0
GSAT-8,2011-022A,2025-03-10T21:12:51.769728,1.00271349,.0007235,0.9309,87.7739,210.3167,243.9544,0,U,37605,999,4857,0,.68E-6,0
ZHONGXING-10,2011-026A,2025-03-10T19:57:21.638880,1.00273554,.0001331,0.0496,270.3778,278.0251,30.1398,0,U,37677,999,5031,0,-.369E-5,0
SES-3,2011-035A,2025-03-10T22:40:27.181920,1.00272181,.0003043,0.1275,85.2737,264.7977,55.8683,0,U,37748,999,4994,0,-.119E-5,0
KAZSAT-2,2011-035B,2025-03-10T19:56:38.634144,1.00273856,.0000772,0.0162,120.7371,293.5482,140.0846,0,U,37749,999,4875,0,-.215E-5,0
ASTRA 1N,2011-041A,2025-03-10T19:58:02.901792,1.00273889,.0005298,0.0898,55.2858,320.8033,111.3338,0,U,37775,999,3988,0,.102E-5,0
PAKSAT-1R,2011-042A,2025-03-10T20:12:38.525184,1.00273962,.0001991,0.0252,104.9435,279.4092,125.5295,0,U,37779,999,4983,0,.136E-5,0
SES-2,2011-049A,2025-03-10T14:19:04.302912,1.00268639,.0002753,0.0199,128.6017,229.4478,298.2305,0,U,37809,999,4931,0,-.213E-5,0
ARABSAT-5C,2011-049B,2025-03-10T20:52:38.793216,1.00271383,.0001528,0.0543,6.7304,330.7191,164.4660,0,U,37810,999,4926,0,.106E-5,0
QUETZSAT 1,2011-054A,2025-03-10T19:30:31.480704,1.00272224,.0002435,0.0437,301.2440,55.6348,27.4583,0,U,37826,999,4522,0,-.259E-5,0
INTELSAT 18 (IS-18),2011-056A,2025-03-10T19:01:03.874080,1.00271701,.0001991,0.0193,144.0343,217.4499,272.4519,0,U,37834,999,4916,0,.35E-6,0
EUTELSAT 16A,2011-057A,2025-03-10T20:20:38.676768,1.00271047,.0005298,0.0671,358.1137,353.1966,138.5724,0,U,37836,999,268,0,.86E-6,0
VIASAT-1,2011-059A,2025-03-10T19:27:36.887904,1.00270671,.0002291,0.0169,165.9365,187.8122,351.7149,0,U,37843,999,4267,0,-.4E-6,0
ASIASAT 7,2011-069A,2025-03-10T11:52:38.795808,1.00270618,.0001647,0.0210,164.3067,149.0946,138.6518,0,U,37933,999,4020,0,-.351E-5,0
LUCH-5A,2011-074B,2025-03-10T18:57:18.680256,1.00271896,.0002659,7.5711,80.7677,251.6613,287.4443,0,U,37951,999,4840,0,-.63E-6,0
NIGCOMSAT 1R,2011-077A,2025-03-10T20:44:38.613984,1.00270497,.000022,0.0409,75.0576,281.6407,165.6895,0,U,38014,999,4838,0,.128E-5,0
WGS F4 (USA 233),2012-003A,2025-03-10T16:38:38.601312,1.00270716,.0000418,0.0107,128.7157,201.9514,175.9649,0,U,38070,999,3950,0,-.232E-5,0
SES-4,2012-007A,2025-03-10T19:46:17.294592,1.00270802,.000237,0.0312,67.6667,294.4002,81.2367,0,U,38087,999,4757,0,-.185E-5,0
BEIDOU-2 G5,2012-008A,2025-03-10T21:12:51.769728,1.00272129,.0013303,2.4189,71.2439,250.9382,223.4930,0,U,38091,999,4783,0,.41E-6,0
INTELSAT 22 (IS-22),2012-011A,2025-03-10T20:36:38.655936,1.00272474,.0001784,0.0146,132.6783,236.1821,181.1613,0,U,38098,999,254,0,-.76E-6,0
APSTAR-7,2012-013A,2025-03-10T20:36:38.655936,1.00271349,.0002639,0.0142,136.0397,235.9337,182.4486,0,U,38107,999,4716,0,-.119E-5,0
YAHSAT 1B,2012-016A,2025-03-10T14:57:36.292608,1.00269495,.0003685,0.0902,94.0388,257.7156,88.7492,0,U,38245,999,4094,0,.109E-5,0
